OBJECT_NAME,OBJECT_ID,EPOCH,MEAN_MOTION,ECCENTRICITY,INCLINATION,RA_OF_ASC_NODE,ARG_OF_PERICENTER,MEAN_ANOMALY,EPHEMERIS_TYPE,CLASSIFICATION_TYPE,NORAD_CAT_ID,ELEMENT_SET_NO,REV_AT_EPOCH,BSTAR,MEAN_MOTION_DOT,MEAN_MOTION_DDOT
BEIDOU-2 M4,2012-018B,2026-06-16T01:07:45.773184,1.86229400,.0011298,55.6594,304.1282,275.8686,83.9863,0,U,38251,999,9592,0,-.71E-6,0
ARIRANG-3 (KOMPSAT-3),2012-025B,2026-06-16T03:26:04.918272,14.62205370,.0006639,98.1170,124.6210,111.9419,248.2489,0,U,38338,999,75119,.80176E-4,.357E-5,0
METOP-B,2012-049A,2026-06-16T03:12:36.438912,14.21432493,.0002295,98.6505,218.6539,22.2139,337.9138,0,U,38771,999,71311,.62961E-4,.94E-6,0
SJ-9A,2012-056A,2026-06-16T03:41:50.598240,14.85476786,.002397,97.6709,139.1429,260.2981,99.5527,0,U,38860,999,69943,.10125E-3,.825E-5,0
COSMOS 2484 (RODNIK-S 6),2013-001C,2026-06-16T04:19:25.415328,12.42939233,.0026916,82.5019,222.5186,38.7587,321.5417,0,U,39059,999,60843,.60628E-3,.94E-6,0
SARAL,2013-009A,2026-06-16T03:11:41.007264,14.32855707,.0000761,98.5556,353.7137,316.6884,43.4240,0,U,39086,999,69545,.41697E-4,.7E-6,0
STRAND-1,2013-009E,2026-06-16T01:57:04.580928,14.37162720,.0007671,98.3921,347.3429,229.0747,130.9776,0,U,39090,999,69690,.87619E-4,.218E-5,0
BRITE-AUSTRIA,2013-009F,2026-06-16T02:14:55.762944,14.36541737,.0009106,98.3994,346.5565,240.1939,119.8342,0,U,39091,999,69689,.62862E-4,.142E-5,0
GAOFEN-1,2013-018A,2026-06-16T04:22:07.608864,14.76536817,.0015691,97.9101,239.2701,269.9606,89.9806,0,U,39150,999,70809,.10428E-3,.677E-5,0
NEE-01 PEGASO,2013-018B,2026-06-16T03:02:32.258400,14.93655276,.0013007,98.1216,311.2415,162.8121,197.3541,0,U,39151,999,71054,.21086E-3,.217E-4,0
PROBA-V,2013-021A,2026-06-16T04:55:51.197088,14.23596789,.0005099,98.3583,145.8605,125.7196,234.4459,0,U,39159,999,68097,.38241E-4,.46E-6,0
ARIRANG-5 (KOMPSAT-5),2013-042A,2026-06-16T04:02:35.294784,15.04487529,.0005281,97.6201,353.8833,122.0593,238.1146,0,U,39227,999,70370,.66253E-4,.866E-5,0
GONETS-M 5,2013-048A,2026-06-16T03:34:29.328384,12.42891978,.0016026,82.4824,344.0298,212.7889,147.2198,0,U,39249,999,57875,.24029E-3,.43E-6,0
GONETS-M 7,2013-048C,2026-06-16T04:37:05.325600,12.42914624,.0016828,82.4891,346.9244,214.0910,145.9090,0,U,39251,999,57871,-.10409E-3,-.5E-7,0
FENGYUN 3C,2013-052A,2026-06-16T04:41:51.307008,14.15754811,.0015307,98.4986,141.1160,30.3656,329.8403,0,U,39260,999,65842,.53719E-4,.64E-6,0
CASSIOPE,2013-055A,2026-06-16T04:16:14.718432,15.25103397,.0293006,80.9153,67.9478,65.8201,297.3362,0,U,39265,999,66751,.47481E-3,.43437E-3,-.52905E-6
APRIZESAT 7,2013-066A,2026-06-16T03:32:39.359328,14.91561995,.0034916,97.7709,120.3825,212.7929,147.1122,0,U,39416,999,68107,.11149E-3,.1072E-4,0
ZACUBE-1 (TSHEPISOSAT),2013-066B,2026-06-16T03:22:47.851968,15.01184047,.0040689,97.8082,129.4722,251.3313,108.3491,0,U,39417,999,68057,.2109E-3,.2688E-4,0
APRIZESAT 8,2013-066K,2026-06-16T03:10:50.623968,14.87651062,.0044468,97.8220,114.6150,290.1674,69.4762,0,U,39425,999,67951,.95187E-4,.824E-5,0
TRITON-1,2013-066M,2026-06-16T05:09:46.274688,14.81702993,.0088446,97.8255,77.0451,237.1640,122.1035,0,U,39427,999,67394,.16757E-3,.1354E-4,0
